[
    {
        "Altitude(m)": 607886.7383979978,
        "Argument of Periapsis(deg)": 0.0,
        "Eccentricity": 0.0,
        "Inclination(deg)": 60.0,
        "Latitude(deg)": 40.9985708235083,
        "Longitude(deg)": 69.97290531388494,
        "Mean Anomaly(deg)": 49.09089999999999,
        "RAAN(deg)": 140.0,
        "Satellite Name": "Test1 619",
        "Satellite Number": 619,
        "Semi-Major Axis(m)": 6980739.136638005,
        "Time(s)": 0
    },
    {
        "Altitude(m)": 607987.6528201859,
        "Argument of Periapsis(deg)": 0.00010418945913296404,
        "Eccentricity": 0.0,
        "Inclination(deg)": 60.0,
        "Latitude(deg)": 41.463661638955095,
        "Longitude(deg)": 70.47713294476,
        "Mean Anomaly(deg)": 49.71100614546182,
        "RAAN(deg)": 139.99957995086024,
        "Satellite Name": "Test1 619",
        "Satellite Number": 619,
        "Semi-Major Axis(m)": 6980739.136638005,
        "Time(s)": 10
    }
]